[{"OBJECT_NAME":"STARLINK-5528","OBJECT_ID":"2023-083Q","EPOCH":"2026-03-09T10:27:38.287584","MEAN_MOTION":15.02541661,"ECCENTRICITY":9.055e-5,"INCLINATION":43.0025,"RA_OF_ASC_NODE":83.0319,"ARG_OF_PERICENTER":297.633,"MEAN_ANOMALY":62.442,"EPHEMERIS_TYPE":0,"CLASSIFICATION_TYPE":"U","NORAD_CAT_ID":56890,"ELEMENT_SET_NO":999,"REV_AT_EPOCH":15163,"BSTAR":-8.8718872e-5,"MEAN_MOTION_DOT":-1.402e-5,"MEAN_MOTION_DDOT":0},{"OBJECT_NAME":"ARIANE 5 R\/B","OBJECT_ID":"2004-049H","EPOCH":"2026-03-09T21:39:04.642848","MEAN_MOTION":14.85266245,"ECCENTRICITY":0.00839202,"INCLINATION":98.2628,"RA_OF_ASC_NODE":237.3671,"ARG_OF_PERICENTER":351.2342,"MEAN_ANOMALY":8.7401,"EPHEMERIS_TYPE":0,"CLASSIFICATION_TYPE":"U","NORAD_CAT_ID":28499,"ELEMENT_SET_NO":999,"REV_AT_EPOCH":14582,"BSTAR":0.0001160231,"MEAN_MOTION_DOT":9.95e-6,"MEAN_MOTION_DDOT":0}]
